OBJECT_NAME,OBJECT_ID,EPOCH,MEAN_MOTION,ECCENTRICITY,INCLINATION,RA_OF_ASC_NODE,ARG_OF_PERICENTER,MEAN_ANOMALY,EPHEMERIS_TYPE,CLASSIFICATION_TYPE,NORAD_CAT_ID,ELEMENT_SET_NO,REV_AT_EPOCH,BSTAR,MEAN_MOTION_DOT,MEAN_MOTION_DDOT
COSMO-SKYMED 1,2007-023A,2026-06-09T04:21:03.181248,14.97062779,.0001089,97.8856,351.9709,82.1946,277.9399,0,U,31598,999,2859,.15832E-3,.1765E-4,0
COSMOS 2428,2007-029A,2026-06-09T00:03:06.204096,14.12929769,.0007207,70.9374,11.6640,150.7335,209.4191,0,U,31792,999,97699,-.68151E-4,-.175E-5,0
SL-16 R/B,2007-029B,2026-06-08T22:02:10.351968,14.14850454,.0002225,70.9760,340.6117,258.7389,212.7314,0,U,31793,999,97827,.18846E-3,.316E-5,0
KORONAS-FOTON,2009-003A,2026-06-09T02:46:14.377152,15.45555714,.0010776,82.4293,180.6785,174.3353,185.8020,0,U,33504,999,95985,.20279E-3,.98E-4,0
CZ-2C R/B,2011-030B,2026-06-09T03:07:13.802304,14.81451200,.0053586,97.8652,115.6620,53.6987,322.0569,0,U,37731,999,80363,.15069E-3,.1154E-4,0
H-2A R/B,2012-025E,2026-06-09T04:42:11.604096,14.95671339,.0044227,98.4813,134.6827,15.0551,345.1972,0,U,38341,999,76189,.24513E-3,.2709E-4,0
SHIJIAN-16 (SJ-16),2013-057A,2026-06-09T04:42:22.262400,14.92592205,.0016932,74.9734,11.8187,249.2227,110.7148,0,U,39358,999,68515,.56363E-4,.552E-5,0
SL-4 R/B,2014-021B,2026-06-08T12:12:08.021088,15.41771019,.00916416,51.6058,253.2847,74.4037,286.7040,0,U,39679,999,67027,.22119414E-3,.10612E-3,0
ALOS-2,2014-029A,2026-06-08T13:11:42.167040,14.79472067,.00016718,97.9210,256.8376,90.6305,269.5098,0,U,39766,999,65030,.20114351E-3,.1451E-4,0
YAOGAN-29,2015-069A,2026-06-09T05:11:51.012096,14.83077147,.0002876,98.0033,188.8367,66.6060,293.5456,0,U,41038,999,56944,.59825E-5,-.5E-7,0
ASTRO-H (HITOMI),2016-012A,2026-06-09T04:05:41.269920,15.10475751,.0009629,30.9980,125.9593,173.7339,186.3421,0,U,41337,999,56607,.11712E-3,.2073E-4,0
HXMT (HUIYAN),2017-034A,2026-06-09T04:12:00.819936,15.18421135,.0030177,43.0132,227.6541,94.2847,266.1451,0,U,42758,999,49644,.19393E-3,.3866E-4,0
SAOCOM 1A,2018-076A,2026-06-09T04:04:28.119360,14.82169522,.0001515,97.8889,347.0353,77.0604,283.0778,0,U,43641,999,41491,.5656E-4,.398E-5,0
H-2A R/B,2018-084L,2026-06-08T21:40:21.499968,15.44834154,.0024203,98.8591,36.9846,68.0040,292.3772,0,U,43682,999,41984,.41495E-3,.19575E-3,0
SAOCOM 1B,2020-059A,2026-06-09T04:49:30.452160,14.82163646,.0001469,97.8891,346.1604,78.7564,281.3814,0,U,46265,999,31230,.43781E-4,.296E-5,0
CSS (TIANHE),2021-035A,2026-06-09T01:00:19.778976,15.60465773,.0008491,41.4695,11.5598,12.4577,347.6471,0,U,48274,999,29189,.23399E-3,.19551E-3,0
COSMOS 2550,2021-056A,2026-06-08T19:23:25.914048,15.33755463,.0008705,67.1416,125.2525,266.0377,93.9783,0,U,48865,999,27743,.1979E-3,.631E-4,0
CZ-2C R/B,2022-058K,2026-06-08T20:37:42.322368,15.61291908,.0033026,50.1846,206.8323,233.1496,126.6448,0,U,52794,999,22434,.35378E-3,.31096E-3,0
GSLV R/B,2022-138AN,2026-06-08T21:31:46.602624,14.97221421,.0021603,87.3798,135.7685,172.4257,187.7305,0,U,54149,999,19757,.19342E-3,.2276E-4,0
ACS3,2024-077B,2026-06-09T00:31:58.238112,13.93913501,.0053079,97.1675,80.6339,68.2482,292.4322,0,U,59588,999,10690,.15401E-1,.20594E-3,0
CZ-8A R/B,2025-231K,2026-06-09T00:23:49.729056,14.30152604,.0116475,50.0043,74.0772,195.2486,164.4907,0,U,66004,999,3377,.47016E-4,-.32E-6,0
